city,street,zip,state
Los Angeles,21102 DEVONSHIRE STREET,90065,CA
Beverly Hills,20945 DEVONSHIRE STREET #207C,90011,CA
Los Angeles,21220 DEVONSHIRE STREET SUITE #203,90039,CA
Sherman Oaks,9301 MASON AVENUE,90012,CA
Los Angeles,20945 DEVONSHIRE STREET SUITE #204,90042,CA
Long Beach,21757 DEVONSHIRE STREET #5A,90023,CA
Los Angeles,21000 DEVONSHIRE STREET,90023,CA
Los Angeles,21748 DEVONSHIRE STREET #303,90065,CA
Mission Hills,21797 DEVONSHIRE STREET,90025,CA
Los Angeles,21053 DEVONSHIRE STREET,90018,CA
West Hollywood,21053 DEVONSHIRE STREET #105,90028,CA
Los Angeles,10204 MASON AVENUE,90031,CA
Los Angeles,10230 MASON AVENUE,90019,CA
Torrance,10201 MASON AVENUE #113,90041,CA
Los Angeles,10228 MASON AVENUE,90041,CA
Los Angeles,21006 DEVONSHIRE STREET SUITE #206,90031,CA
Los Angeles,21008 DEVONSHIRE STREET,90026,CA
Los Angeles,20555 DEVONSHIRE STREET SUITE #320,90026,CA
Bell,21220 DEVONSHIRE STREET SUITE #204,90026,CA
Los Angeles,21012 DEVONSHIRE STREET,90032,CA
Los Angeles,21748 DEVONSHIRE STREET,90032,CA
Wilmington,21534 DEVONSHIRE STREET SUITE #D,90032,CA
Santa Monica,21032 DEVONSHIRE STREET #104,90012,CA
Los Angeles,9400 MASON AVENUE,90012,CA
Pasadena,21008 DEVONSHIRE STREET,90039,CA
Los Angeles,21032 DEVONSHIRE STREET #111,90032,CA
Long Beach,21340 DEVONSHIRE STREET SUITE #B,90033,CA
Downey,21601 DEVONSHIRE STREET #217,90033,CA
South El Monte,21300 DEVONSHIRE STREET #17-18,90023,CA
Alhambra,21032 DEVONSHIRE STREET #104,90042,CA
Los Angeles,10360 MASON AVENUE,90065,CA
Sherman Oaks,21000 DEVONSHIRE STREET #201,90039,CA
Compton,20801 DEVONSHIRE STREET,90042,CA
Downey,20557 DEVONSHIRE STREET,90027,CA
Huntington Park,20555 DEVONSHIRE STREET SUITE #242,90005,CA
South Gate,21924 DEVONSHIRE STREET,90731,CA
Los Angeles,21701 DEVONSHIRE STREET #E,91342,CA
Long Beach,20372 DEVONSHIRE STREET,90744,CA
Van Nuys,21006 DEVONSHIRE STREET SUITE #206,90047,CA
Los Angeles,10201 MASON AVENUE UNIT #108,91304,CA
Inglewood,21601 DEVONSHIRE STREET SUITE #305,90037,CA
Los Angeles,21309 DEVONSHIRE STREET,90036,CA
Los Angeles,21601 DEVONSHIRE STREET #128,90033,CA
Long Beach,10227 MASON AVENUE UNIT #311,90402,CA
Long Beach,21102 DEVONSHIRE STREET,90011,CA
Long Beach,21000 DEVONSHIRE STREET #103A,90025,CA
Los Angeles,21114 DEVONSHIRE STREET,90043,CA
Hacienda Heights,21033 DEVONSHIRE STREET,91423,CA
Pasadena,21601 DEVONSHIRE STREET SUITE #128,90045,CA
Pomona,21032 DEVONSHIRE STREET,90027,CA
Chino Hills,21704 DEVONSHIRE STREET SUITE #330,90027,CA
Sherman Oaks,14401 Friar St,90027,CA
Los Angeles,11320 Chandler Blvd,90023,CA
Compton,14521 Friar St,90042,CA
Los Angeles,14532 Gilmore St,90033,CA
Los Angeles,2010 S Pisani Pl,90033,CA
East Rancho Dominguez,728 S Cochran Ave,90027,CA
Los Angeles,1411 Electric Ave,90027,CA
Torrance,1511 Electric Ave,90027,CA
Long Beach,7134 Remmet Ave,90027,CA
Los Angeles,1451 Gardner St,90027,CA
Los Angeles,14607 Sylvan St,90008,CA
Los Angeles,7120 Baird Ave,90016,CA
Los Angeles,7131 Canby Ave,90744,CA
Los Angeles,8707 Menlo Ave,90710,CA
Los Angeles,7222 Baird Ave,90064,CA
Santa Monica,3416 W 43rd St,90732,CA
Los Angeles,3328 W 43rd St,90291,CA
Long Beach,11231 Magnolia Blvd,90035,CA
Los Angeles,2418 Daly St,90011,CA
Northridge,14591 Dickens St,90043,CA
North Hills,14517 Erwin St,91331,CA
Los Angeles,14402 Gilmore St,91324,CA
Los Angeles,5345 11th Ave,91606,CA
Pasadena,5407 11th Ave,90057,CA
Long Beach,5701 11th Ave,90025,CA
Santa Clarita,119 N Avenue 56,90045,CA
Lancaster,5712 E Marmion Wy,90291,CA
North Hollywood,124 N Avenue 59,90044,CA
Los Angeles,120 S Avenue 58,90037,CA
Los Angeles,116 S Avenue 56,90011,CA
San Pedro,7130 Darby Ave,90011,CA
Wilmington,462 W 9th St,90003,CA
Los Angeles,1421 S Wooster St,90047,CA
Rosemead,1147 Echo Park Ave,90059,CA
Van Nuys,7219 Remmet Ave,90002,CA
Pasadena,1540 Purdue Ave,90044,CA
La Puente,3528 Larga Ave,90044,CA
North Hills,474 W 8th St,90059,CA
Pacoima,1533 N Schrader Blvd,90058,CA
Compton,928 Marine Ave,90011,CA
Palmdale,1516 Barry Ave,90011,CA
Whittier,1530 Butler Ave,90011,CA
Los Angeles,1547 Corinth Ave,90047,CA
Pasadena,1611 Beloit Ave,90043,CA
Pasadena,11312 Idaho Ave,90002,CA
Los Angeles,1615 Colby Ave,90059,CA
Los Angeles,221 Avenue 22,90016,CA
Bell,216 Avenue 24,90064,CA
Los Angeles,2334 Daly St,90035,CA
Los Angeles,154 Ave 24,90046,CA
Glendale,2416 Workman St,90008,CA
North Hollywood,1152 Lemoyne St,90008,CA
Highland Park,1146 Logan St,90064,CA
Eagle Rock,4883 Navarro St,90016,CA
Monterey Park,323 W 87th St,90035,CA
Pasadena,5058 Meridian St,90016,CA
Monrovia,5033 Lincoln Ave,90016,CA
Lynwood,1710 Cherokee Ave,90036,CA
Van Nuys,124 S Avenue 57,90036,CA
San Gabriel,117 S Avenue 58,90025,CA
Los Angeles,7220 Jordan Ave,91331,CA
West Hollywood,4642 Russell Ave,90064,CA
Los Angeles,1146 Glendale Blvd,91406,CA
El Monte,8509 S Broadway,91436,CA
Los Angeles,1711 Sunset Blvd,91436,CA
Los Angeles,1036 Broxton Ave,90744,CA
Lennox,15216 W Sunset Blvd,90291,CA
Lancaster,318 N Breed St,90024,CA
Los Angeles,445 W 5th St,90039,CA
Lakewood,460 W 7th St,90064,CA
Palmdale,2386 Malcolm Ave,90019,CA
Santa Monica,5063 Caspar Ave,90744,CA
Pacoima,7141 Remmet Ave,90003,CA
Torrance,1156 Clark Dr,90016,CA
Compton,8866 Pico Blvd,90066,CA
Los Angeles,12225 Ventura Blvd,91331,CA
Los Angeles,682 S Vermont Ave,90026,CA
Los Angeles,601 S Vermont Ave,90744,CA
Los Angeles,209 N Larchmont Blvd,91335,CA
Los Angeles,123 N Avenue 57,91352,CA
Los Angeles,835 Avalon Blvd,91344,CA
San Pedro,2332 Workman St,91331,CA
Alhambra,2367 Prosser Ave,91304,CA
Montebello,529 11th St,91601,CA
Los Angeles,239 W 86th Pl,91324,CA
Los Angeles,2150 Dell Ave,91331,CA
Inglewood,1625 N Vine St,91335,CA
Los Angeles,123 S Robertson Blvd,91402,CA
West Covina,7128 Jordan Ave,91352,CA
Duarte,21901 W Costanso St,91342,CA
Huntington Park,2377 Midvale Ave,91606,CA
Glendale,3528 Garden Ave,91423,CA
Glendale,7246 Baird Ave,91042,CA
Los Angeles,249 N Chicago St,91367,CA
Valencia,2371 Overland Ave,91406,CA
Los Angeles,7117 Remmet Ave,90006,CA
Pasadena,2129 E 1st St,90026,CA
Lakewood,200 N Venice Blvd,90018,CA
Long Beach,218 N Larchmont Blvd,90731,CA
Los Angeles,396 W 6th St,90731,CA
Arcadia,301 S Main St,90744,CA
San Pedro,1637 N Wilcox Ave,90732,CA
Torrance,8463 S Vermont Ave,90731,CA
Long Beach,6801 Hollywood Blvd,90710,CA
Los Angeles,5000 N Vineland Ave,90731,CA
San Fernando,11010 Santa Monica Blvd,90710,CA
Santa Monica,4702 W Washington Blvd,90501,CA
Los Angeles,4600 W Washington Blvd,90732,CA
Lincoln Heights,4601 W Washington Blvd,90731,CA
La Habra,6265 Sylmar Ave,90247,CA
Chino Hills,414 E Temple St,90744,CA
Los Angeles,237 S Los Angeles St,90049,CA
Los Angeles,636 Maple Ave,90049,CA
Los Angeles,1608 S Pacific Ave,90230,CA
Newhall,15314 W Dickens St,90066,CA
Val Verde,101 N Judge John Aiso St,90230,CA
Canyon Country,4318 Degnan Blvd,90291,CA
Long Beach,528 W 7th St,90272,CA
Northridge,14758 Ventura Blvd,90291,CA
Long Beach,10040 Old Depot Plaza Rd,90402,CA
Canoga Park,8801 Wilbur Ave,90025,CA
Baldwin Park,8358 San Fernando Rd,90291,CA
San Gabriel,12200 Frank Modugno Dr,90045,CA
Pico Rivera,7700 Van Nuys Blvd,91344,CA
Los Angeles,1850 N. Curson Ave,91343,CA
Los Angeles,1840 Yosemite Dr.,91344,CA
Los Angeles,6671 Yucca St.,90025,CA
Encino,17015 Burbank Blvd,90026,CA
Arleta,13310 Branford Street,90007,CA
Canaga Park,7326 Jordan Ave.,90045,CA
Chatsworth,22360 Devonshire Street,90025,CA
Van Nuys,15100 Erwin Street,90012,CA
Encino,4935 Balboa Blvd.,90012,CA
Sun Valley,8851 Laurel Canyon,90802,CA
Granada Hills,16730 Chatsworth Street,90802,CA
Pacoima,12560 Filmore Street,91401,CA
Lake View Terrace,11075 Foothill Blvd,90731,CA
Canoga Park,21816 Lanark Street,91311,CA
Chatsworth,10500 Mason Ave,90012,CA
Van Nuys,14450 Valerio Street,90265,CA
North Hollywood,11430 Chandler Blvd.,91505,CA
North Hollywood,11430 Chandler Blvd.,90022,CA
North Hollywood,10844 Acama Street,90503,CA
Northridge,18300 Lemarsh Street,91801,CA
Pacoima,10943 Herrick Ave,93534,CA
Panorama City,8600 Hazeltine Ave,90706,CA
Reseda,18411 Victory Blvd,90650,CA
Pacoima,10731 Laurel Canyon Blvd,90242,CA
Panorama City,8801 Kester Ave,91766,CA
Encino,16633 Magnolia Blvd,91340,CA
Canoga Park,22633 Vanowen Street,91101,CA
Sun Valley,9901 Dronfield Street,90220,CA
Studio City,12621 Rye Street,90012,CA
Sun Valley,8133 Vineland Ave,91206,CA
Sunland,8651 Foothill Blvd,91790,CA
Sunland,8640 Fenwick Ave,90503,CA
Sylmar,13109 Borden Ave,91401,CA
Tarzana,5655 Vanalden Ave,90045,CA
Tarzana,5655 Vanalden Ave,90602,CA
North Hollywood,12240 Archwood St,91724,CA
Van Nuys,14301 Vanowen St.,90802,CA
Van Nuys,6514 Sylmar Ave,90001,CA
Van Nuys,14201 Huston Street,91342,CA
Sherman Oaks,5040 Van Nuys Blvd.,91766,CA
North Hollywood,11117 Victory Blvd.,90242,CA
Reseda,6422 Etiwanda Ave,90220,CA
Northridge,8956 Vanalden Ave,90301,CA
Winnetka,8401 Winnetka Ave,91101,CA
Woodland Hills,5858 Shoup Ave,90033,CA
Sherman Oaks,14201 Huston Street,90275,CA
North Hollywood,6911 Laurelgrove Ave,90266,CA
North Hollywood,11430 Chandler Blvd.,90301,CA
Los Angeles,2230 Norfolk St.,90022,CA
Los Angeles,2830 Lancaster Aven,90007,CA
Los Angeles,6150 Piedmont Ave.,91355,CA
Los Angeles,6152 N. Figueroa St.,90266,CA
Los Angeles,415 S. St. Louis St.,90201,CA
Los Angeles,1122 Cole Ave.,90241,CA
Los Angeles,1010 W. 25th St.,91744,CA
Los Angeles,625 S. Lafayette Park Pl.,90277,CA
Los Angeles,Lanark St. & Shelby Pl.,91711,CA
Los Angeles,1820 N. Las Palmas Ave.,90265,CA
Los Angeles,4959 Lemon Grove.,90212,CA
Los Angeles,2250 W. Jefferson Blvd,90503,CA
Los Angeles,2303 Workman St.,90017,CA
Los Angeles,2323 Workman St.,91776,CA
Los Angeles,3501 Valley Blvd,90201,CA
Los Angeles,3501 Valley Blvd,90602,CA
Los Angeles,2717 Halldale Ave.,90045,CA
Los Angeles,4625 W. Olympic Blvd,91355,CA
Los Angeles,401 N. Ave 19,91765,CA
Los Angeles,2230 W. 6th St.,90023,CA
Los Angeles,607 S. Parkview(4th floor),91010,CA
Los Angeles,4545 Homer St.,91741,CA
Los Angeles,4545 Homer St.,90631,CA
Los Angeles,1550 S. Normandie Ave.,91342,CA
Los Angeles,3900 W. Chevy Chase Dr.,90831,CA
Los Angeles,3916 South Western Ave.,90262,CA
Los Angeles,127 S. Pecan St.,91361,CA
Los Angeles,532 S. Olive St.,90230,CA
Los Angeles,1827 S. Hoover St.,90404,CA
Los Angeles,7341 Willoughby Ave,91011,CA
Los Angeles,Echandia & Judson St.,91344,CA
Los Angeles,1240 West Blvd.,91007,CA
Los Angeles,2830 Lancaster Ave.,91722,CA
Los Angeles,2800Fowler St.,91214,CA
Los Angeles,4580 North Figueroa St.,91101,CA
Los Angeles,4900 Beverly Blvd,91801,CA
Los Angeles,3606 N. Boundary.,91706,CA
Los Angeles,"456 S. Mathews,",91702,CA
Los Angeles,1501 E. 41st St.,90706,CA
Los Angeles,5668 Via Marisol,91502,CA
Los Angeles,Adams Blvd. & Severance St.,91302,CA
Los Angeles,2413 Second Ave.,91303,CA
Los Angeles,3191 W. 4th St.,90746,CA
Los Angeles,1850 W. Silverlake Dr.,90067,CA
Los Angeles,6th & Gladys St.,90040,CA
Los Angeles,716 N. State St.,90221,CA
Los Angeles,4702 N. Figueroa,90245,CA
Los Angeles,Malvern Ave. & Alvarado Terrace,91316,CA
Los Angeles,1725 Toberman St.,90247,CA
Los Angeles,2415 Trinity St.,91205,CA
Los Angeles,2765 Wabash Ave,90710,CA
Los Angeles,370 S. Clarence St.,90250,CA
Los Angeles,817 Yale St.,90254,CA
Los Angeles,3250 San Marino St,90028,CA
Los Angeles,5568 Via Marisol,90255,CA
Los Angeles,4800 Hollywood Blvd.,90301,CA
Los Angeles,826 Lucile Ave.,90638,CA
Los Angeles,3570 S. Denker Ave.,91750,CA
Los Angeles,2839 E. 3rd St.,90260,CA
Los Angeles,933 Mott St.,90031,CA
Los Angeles,4100 Via Mirasol,90717,CA
Los Angeles,511 W. Ave. 46,90266,CA
Los Angeles,1357 E. 22nd St.,91016,CA
Los Angeles,4165 Chevy Chase Dr.,90640,CA
Los Angeles,200 N. Main St.,91754,CA
Los Angeles,4800 Cleland Ave.,90650,CA
Los Angeles,3141 E. Olympic Blvd.,91731,CA
Los Angeles,3121 E. Olympic Blvd.,90272,CA
Los Angeles,2630 Pepper Ave.,93550,CA
Los Angeles,1350 N. Cherokee Ave.,90723,CA
Los Angeles,1550 W. 35th Pl.,90660,CA
Los Angeles,7020 Franklin Ave.,91766,CA
Los Angeles,1772 N. Spring St.,91770,CA
Los Angeles,4526 W. Pico Blvd.,91773,CA
Los Angeles,1100 Eagle Vista Dr.,91108,CA
Los Angeles,1100 Eagle Vista Dr.,90670,CA
Los Angeles,2500 N. Eastlake Ave.,91024,CA
Los Angeles,1632 Bellevue Ave.,90280,CA
Los Angeles,1632 Bellevue Ave.,91040,CA
Los Angeles,1419 Colton St.,91301,CA
Los Angeles,4410 Garden Homes Ave.,93534,CA
Los Angeles,4721 Klamath Place,90064,CA
Los Angeles,4818 Klamath Place,90703,CA
Los Angeles,3835 Academy Rd.,90755,CA
Los Angeles,929 Academy Rd.,91208,CA
Los Angeles,1811 Ripple St.,91311,CA
Los Angeles,4235 Monterey Rd.,91406,CA
Los Angeles,2844 E. 2nd St.,90401,CA
Los Angeles,2844 E. 2nd St.,91403,CA
Los Angeles,1016 S. Fresno St.,91605,CA
Los Angeles,500 Ave 63,91602,CA
Los Angeles,3650 Verdugo Rd.,91606,CA
Los Angeles,2932 Glenhurst,90058,CA
Los Angeles,6200 Marmion Way,90046,CA
Los Angeles,3401 Riverside Dr.,90744,CA
Los Angeles,890 S. Lucerne Ave.,91364,CA
San Pedro,3351 Gaffey St.,91780,CA
Lake View Terrace,11770 Foothill Blvd.,90274,CA
Wilmington,1221 N. Figueroa,91001,CA
Los Angeles,6120 Denker,90012,CA
Canoga Park,21817 Strathern St.,90010,CA
Los Angeles,3980 S. Menlo Ave.,91604,CA
Los Angeles,141 S. Gardner St.,91706,CA
Los Angeles,120 Gless Street,91789,CA
Pacific Palisades,601 Latimer Road,90704,CA
Los Angeles,345 E. 51th Street,90008,CA
Los Angeles,1831 Stoner Ave.,90045,CA
Los Angeles,5720 2nd Ave.,90056,CA
Sherman Oaks,14201 Huston Street,90704,CA
Los Angeles,9100 Lincoln Blvd.,90022,CA
Los Angeles,4730 Crystal Springs Dr.,90631,CA
Los Angeles,4730 Crystal Springs Dr.,91355,CA
Los Angeles,2650 N. Vermont Ave.,91361,CA
Los Angeles,3141 E. Olympic Blvd.,90045,CA
Los Angeles,6150 Piedmont Ave.,90012,CA
Los Angeles,716 N. State St.,91364,CA
Los Angeles,2765 Wabash Ave,90009,CA
Los Angeles,4750 Crystal Springs Dr.,90008,CA
Los Angeles,2800 E. Observatory Road,90012,CA
Los Angeles,2800 E. Observatory Road,90012,CA
Los Angeles,4350 Crystal Springs Dr.,90017,CA
Los Angeles,3900 Crystal Spring Dr.,90242,CA
Los Angeles,4000 S. La Brea Ave,90063,CA
Los Angeles,5401 Highlight Place,90012,CA
Wilmington,1331 Eubank Ave,90012,CA
Harbor City,24901 Frampton Ave,90012,CA
Los Angeles,2950 Overland Ave,90012,CA
San Pedro,560 N. Western Ave,90012,CA
Venice,1341 Lake Street,90650,CA
Los Angeles,1641 Preusss Road,90071,CA
Los Angeles,345 E. 51st Street,93535,CA
Los Angeles,5720 2nd Ave,91342,CA
Pacoima,12560 Filmore,90012,CA
Northridge,10058 Reseda,90230,CA
North Hollywood,11117 Victory,91733,CA
Los Angeles,625 S. Lafayette Park Place,90755,CA
Los Angeles,11338 Santa Monica Blvd.,91411,CA
Los Angeles,8740 Lincoln Blvd.,90012,CA
Venice,1234 Pacific Ave,90650,CA
Los Angeles,8800 S. Hoover Street,91790,CA
Los Angeles,3990 S. Menlo Ave,91406,CA
Los Angeles,4700 Honduras,91101,CA
Los Angeles,429 W. 42nd Street,90220,CA
Los Angeles,431 E. 89th Street,91731,CA
Los Angeles,1535 W. 62nd Street,90802,CA
Los Angeles,2250 W. 114th Street,90012,CA
Los Angeles,9900 Grape Street,91401,CA
Los Angeles,830 W. 70th Street,90012,CA
Los Angeles,830 W. 70th Street,91331,CA
Los Angeles,1464 E. 109th Street,90045,CA
Los Angeles,5350 Alba Street,91801,CA
Los Angeles,5306 S. Compton,91706,CA
Los Angeles,5306 S. Compton,91711,CA
Los Angeles,345 E. 51st Street,90660,CA
Los Angeles,8701 St. Andrews Place,90731,CA
Los Angeles,5720 2nd Ave,90047,CA
Watts,1660 E. 99th Street,90002,CA
Los Angeles,11251 Compton Ave,91770,CA
Los Angeles,5401 Highlight Place,90806,CA
Los Angeles,2551 Motor Ave,90007,CA
Los Angeles,1762 S. La Cienega Blvd,90007,CA
Los Angeles,7929 Melrose Ave,90806,CA
Los Angeles,4000 S. La Brea Ave,90007,CA
Los Angeles,4000 S. La Brea Ave,90001,CA
Los Angeles,2950 Overland Ave,90011,CA
Los Angeles,5001 Rodeo Road,90810,CA
Los Angeles,1641 Preusss Road,90056,CA
Los Angeles,2942 Vineyard Ave,90018,CA
Los Angeles,2942 Vineyard Ave,90744,CA
Los Angeles,141 S Gardner Ave,90731,CA
Los Angeles,141 S Gardner Ave,90007,CA
Los Angeles,1350 Sepulveda Ave.,90061,CA
Pacoima,10400 Glenoaks Blvd.,90016,CA
Los Angeles,10460 W. Pico Blvd.,90044,CA
Van Nuys,6331 Woodley Ave.,90037,CA
Encino,16821 Burbank Blvd.,90302,CA
Encino,16821 Burbank Blvd.,91103,CA
Wilmington,1235 N. Figueroa Pl.,90022,CA
Venice,1233 Rose Ave.,90059,CA
Los Angeles,601 Club View Dr.,91340,CA
Los Angeles,3207 Los Feliz Blvd.,91010,CA
Los Angeles,10460 W. Pico Blvd.,90806,CA
Los Angeles,4526 W. Pico Blvd.,90405,CA
Wilmington,1415 N. Avalon Blvd,90017,CA
Los Angeles,7630 S. Towne Ave,91101,CA
Los Angeles,5001 Rodeo Rd.,90007,CA
Los Angeles,2490 Walgrove Ave.,90802,CA
Pacoima,12560 Filmore St.,90802,CA
Los Angeles,1632 Bellevue,91101,CA
Wilmington,1221 N. Figueroa,91206,CA
Reseda,8120 Vanalden Ave,90806,CA
Sun Valley,8851 Laurel Canyon Blvd,91206,CA
Granada Hills,16730 Chatsworth,91770,CA
Pacoima,12560 Filmore Street,91001,CA
Canoga Park,21817 Strathern Street,,CA
North Hollywood,5301 Tujunga Ave,,CA
Northridge,10088 Reseda Blvd,,CA
Pacoima,10731 Laurel Canyon Blvd,,CA
Reseda,18411 Victory Blvd,,CA
Panorama City,8737 Kester Ave,,CA
Sun Valley,8123 Vineland,91801-4442,CA
Sylmar,13109 Borden Ave,90022-1218,CA
North Hollywood,6715 Laurelgrove Ave,91754-7121,CA
Sherman Oaks,14201 Huston Street,90026-5420,CA
Tujunga,10654 Irma Ave,90022-2924,CA
Woodland Hills,5858 Shoup Ave,90063-2022,CA
Van Nuys,6200 Balboa Blvd,90040-1211,CA
Los Angeles,3250 San Marino Sr.,90032-2588,CA
Los Angeles,826 Lucile Ave.,90063-1511,CA
Los Angeles,2717 Halldale Ave.,91754-6001,CA
San Pedro,828 S. Mesa Street,90022-3319,CA
San Pedro,3701 S. Gaffey Street,91801-2562,CA
Wilmington,1331 Eubank Street,91803-4316,CA
San Pedro,1920 Cumbre Drive,90042-3313,CA
San Pedro,845 W. 12th Street,90042-1508,CA
Harbor City,24901 Frampton Ave,90022-1420,CA
San Pedro,863 S. Herbert Ave,91744-5025,CA
Harbor City,25820 S. Vermont Ave,90063-4143,CA
Torrance,22400 Halldale Ave,90023-4009,CA
San Pedro,560 N. Western Ave,90022-1205,CA
San Pedro,275 W. 1st Street,91770-4410,CA
Gardena,840 W. 149th Street,90023-2445,CA
Wilmington,325 Neptune Ave,90715-2010,CA
Los Angeles,333 S. Barrington Ave,90703-7157,CA
Los Angeles,1000 Hanley Ave,90701-4352,CA
Culver City,5070 Slauson Ave,90715-2301,CA
Los Angeles,11430 Woodbine Ave,90701-1750,CA
Culver City,4901 Marionwood Drive,90715-1324,CA
Venice,767 California Ave,91706-3809,CA
Pacific Palisades,851 Alm a Real Drive,91706-4546,CA
Venice,1341 Lake Street,91706-4926,CA
Pacific Palisades,601 Latimer Road,91706-2799,CA
Los Angeles,1835 Stoner Ave,91706-1917,CA
Venice,1531 Ocean Front Walk,91706-4798,CA
Los Angeles,7000 W. Manchester Ave,91706-5398,CA
Granada Hills,17535 Chatsworth St.,91706-2328,CA
North Hills,8345 Hayvenhurst Pl.,91746-2518,CA
Granada Hills,10535 Zelzah Ave,91746-1708,CA
Los Angeles,11800 Texas Ave,91746-1733,CA
Los Angeles,2110 Stadium Way,91746-1625,CA
Los Angeles,1945 S. Hill St.,91746-1328,CA
Los Angeles,11701 S. La Cienega Blvd.,90712-1211,CA
Los Angeles,1645 Corinth Ave.,90706-3237,CA
Los Angeles,200 N. Main St.,90706-3706,CA
Los Angeles,312 S Hill St,90706-6013,CA
Long Beach,333 W Ocean Blvd,90712-2023,CA
Long Beach,415 W. Ocean Blvd.,90712-1850,CA
Van Nuys,6262 Van Nuys Blvd.,91384-2472,CA
San Pedro,638 S. Beacon St.,91316-1250,CA
Chatsworth,9245 Penfield Ave.,91356-3734,CA
Los Angeles,Clara Shortridge Foltz Criminal Justice Center,91406-3418,CA
Malibu,23525 Civic Center Way,,CA
Burbank,300 E. Olive Ave.,91405-1742,CA
Los Angeles,4848 E. Civic Center Way,91401-4435,CA
Torrance,3031 Torrance Blvd.,90034-6309,CA
Alhambra,150 W. Commonwealth Ave.,90003-1935,CA
Lancaster,42011 4th St. West,90011-4603,CA
Bellflower,10025 E. Flower St.,90291-3963,CA
Norwalk,12720 Norwalk Blvd.,90291-3404,CA
Downey,7500 E. Imperial Hwy.,90003-2213,CA
Pomona,400 Civic Center Plaza,90011-2235,CA
San Fernando,900 3Rd St,90404-4717,CA
Pasadena,300 E Walnut St,90230-5711,CA
Compton,200 W. Compton Blvd.,90404-2808,CA
Los Angeles,210 W Temple St,90034-6403,CA
Glendale,600 E. Broadway,90011-2327,CA
West Covina,1427 W West Covina Pkwy,90011,CA
Torrance,825 Maple Ave.,91010-2206,CA
Van Nuys,6230 Sylmar Ave.,91010-3322,CA
Los Angeles,11701 S. La Cienega Blvd.,91010-3114,CA
Whittier,7339 S. Painter Ave.,91733-1213,CA
Los Angeles,201 N Figueroa St,91731-1814,CA
Long Beach,100 Oceangate,91731,CA
Los Angeles,7625 Central Ave.,91733-1314,CA
Sylmar,16350 S. Filbert St.,91731,CA
Pomona,300 S. Park Ave.,91731-1816,CA
Downey,7281 E. Quill Dr.,91732,CA
Compton,200 W. Compton Blvd.,90026-3127,CA
Inglewood,1 Regent St,90031-2024,CA
Pasadena,215 N. Marengo St.,90029-1602,CA
Los Angeles,1601 Eastlake Ave.,91773-2264,CA
Rancho Palos Verdes,30940 Hawthorne Blvd.,90004-2214,CA
Manhattan Beach,1400 Highland Ave,90065-1152,CA
Inglewood,1 W Manchester Blvd,90063-3118,CA
Los Angeles,4848 Civic Center Way,90033-1321,CA
Los Angeles,1933 S Broadway,90026-1847,CA
Santa Clarita,23747 Valencia Blvd,91766-5763,CA
Manhattan Beach,1400 Highland Ave,90012-2118,CA
Bell,4401 E. Gage Ave.,90028-8514,CA
Downey,11131 Brookshire Ave.,90023-2219,CA
Industry,15651 Stafford St.,90033-3703,CA
Redondo Beach,200 S Pacific Coast Hwy,90003-3514,CA
Claremont,205 Yale Ave.,90027-6104,CA
Malibu,23805 Stuart Ranch Rd,90038-2209,CA
Beverly Hills,239 S. Beverly Dr.,91750,CA
Torrance,3400 Torrance Blvd.,90026-4426,CA
Los Angeles,350 S. Bixel St.,90059-1807,CA
San Gabriel,620 W. Santa Anita St.,90033-4216,CA
Bell Gardens,7535 Perry Rd.,90026-4715,CA
Whittier,8158 Painter Ave.,90031-2309,CA
Los Angeles,9100 S. Sepuveda Blvd.,90007-1109,CA
Santa Clarita,28460 Avenue Stanford,91750-4140,CA
Diamond Bar,21845 Copley Dr.,90033-1713,CA
Los Angeles,3354 E. Olympic Blvd.,90028-6716,CA
Duarte,1634 Third St.,91770-2922,CA
Glendora,131 E. Foothill Blvd.,91776-3901,CA
La Habra,321 E. La Habra Blvd.,91770-2332,CA
Sylmar,13867 Foothill Blvd.,91770-2210,CA
Long Beach,1 World Trade Center,91770-2758,CA
Lynwood,3651 E. Imperial Hwy.,91754,CA
Westlake Village,600 Hampshire Rd.,91755-5715,CA
Culver City,4249 Overland Ave.,91776-4007,CA
Santa Monica,2450 Colorado Ave.,91755-4223,CA
La Canada Flintridge,4529 Angeles Crest Hwy.,91770-3619,CA
Granada Hills,17723 Chatsworth St.,91770-3261,CA
Arcadia,388 W. Huntington Dr.,91770-3020,CA
Covina,935 W. Badillo,91744-3017,CA
La Crescenta,3131 Foothill Blvd.,91744-1924,CA
Pasadena,844 E. Green St.,91744-3017,CA
Alhambra,104 S. First St.,91744-1620,CA
Irwindale,16102 Arrow Hwy,91745-2329,CA
Azusa,240 W. Foothill Blvd.,91744-2460,CA
Bellflower,16730 Bellflower Blvd.,91745-2038,CA
Burbank,200 W. Magnolia Blvd.,91745-3331,CA
Calabasas,23564 Calabasas Rd.,91744-2441,CA
Canoga Park,7248 Owensmouth Ave.,91744-3718,CA
Carson,530 E. Del Amo Blvd.,91744-3765,CA
Los Angeles,2029 Century Park E,91744-2602,CA
Commerce,6055 E. Washington Blvd.,91744-2333,CA
Compton,700 N. Bullis Rd.,91744-4156,CA
El Segundo,427 Main St.,91744-4738,CA
Encino,4933 Balboa Blvd.,90303,CA
Gardena,1204 W. Gardena Blvd.,90303-2031,CA
Glendale,701 N Brand Blvd,90008-4228,CA
Harbor City,1400 W 240Th St,90017-2185,CA
Hawthorne,12629 Crenshaw Blvd,91502-1138,CA
Hermosa Beach,1007 Hermosa Ave.,90062-2505,CA
Hollywood,7018 Hollywood Blvd.,90065-2101,CA
Huntington Park,6330 Pacific Blvd.,90065-1110,CA
Inglewood,330 E. Queen St.,90065-2844,CA
La Mirada,11900 La Mirada Blvd,90026-5676,CA
La Verne,2078 Bonita Ave.,90016-2208,CA
Lawndale,14717 S. Hawthorne Blvd.,91505-3036,CA
Los Angeles,2716 N. Broadway,90003-4222,CA
Lomita,25332 Narbonne Ave.,90006-1413,CA
Manhattan Beach,425 15th St.,90017-2011,CA
Monrovia,620 S. Myrtle Ave.,90039-1253,CA
Montebello,109 N 19Th St,90019-4236,CA
Monterey Park,700 El Mercado Ave.,90280-6007,CA
Norwalk,12040 Foster Rd.,90026-4694,CA
El Monte,10505 Valley Blvd.,91205-3831,CA
Pacific Palisades,15330 Antioch St.,90059-1236,CA
Palmdale,817 E. Avenue Q-9,90002-2045,CA
Paramount,15357 Paramount Blvd.,90002-2433,CA
Pico Rivera,5016 Passons Blvd.,90059-1640,CA
Pomona,101 W Mission Blvd,90059-1518,CA
Rosemead,3953 Muscatel Ave.,90059-1222,CA
San Dimas,246 E. Bonita Ave.,90057-1013,CA
San Marino,1800 Huntington Dr,90026-5704,CA
Santa Fe Springs,12016 Telegraph Rd.,90057-2286,CA
Sierra Madre,20 W Montecito Ave,93534,CA
South Gate,3350 Tweedy Blvd.,93535-4010,CA
Sunland,8250 Foothill Blvd,93535-2603,CA
Agoura Hills,30101 Agoura Ct.,93534-2226,CA
Lancaster,554 W. Lancaster Blvd.,93534-4933,CA
Los Angeles,2370 Westwood Blvd,93536-6205,CA
Cerritos,13259 E. South St.,90201-1149,CA
Signal Hill,2201 E Willow St,90270-3017,CA
Glendale,3516 N. Verdugo Rd.,90201-5205,CA
Chatsworth,10038 Old Depot Plaza Rd.,90201-1307,CA
Van Nuys,7120 Havenhurst Ave.,90270-3014,CA
Santa Monica,1234 6th St.,90011-1626,CA
Sherman Oaks,14827 Ventura Blvd.,90002-1025,CA
North Hollywood,11501 Strathern St.,90011-1303,CA
Toluca Lake,10000 Riverside Dr.,90006-5407,CA
North Hollywood,6369 Bellingham Ave.,90044-4443,CA
Vernon,3801 Santa Fe Ave.,90003-3927,CA
West Hollywood,8272 Santa Monica Blvd.,90011-3051,CA
Wilmington,544 N. Avalon Blvd.,90023-3504,CA
Woodland Hills,20121 Ventura Blvd.,90003-4910,CA
Temple City,9050 E. Las Tunas Dr.,90044-2631,CA
Rolling Hills Estates,707 Silver Spur Rd.,90044-2650,CA
Altadena,730 E. Altadena Dr.,90002-3513,CA
Los Angeles,244 S. San Pedro St.,90003-1026,CA
Los Angeles,3435 Wilshire Blvd.,90047-1540,CA
Studio City,4024 Radford Ave.,90002-1113,CA
Irwindale,4900 Rivergrade Rd,90044-4836,CA
Walnut,19720 Walnut Dr S,90023-1409,CA
Avalon,#1 Green Pier,90043-5143,CA
Los Angeles,3860 Crenshaw Blvd,90044-5901,CA
Los Angeles,5757 W. Century Blvd,90011-5413,CA
Los Angeles,5100 W. Goldleaf Circle,90044-6410,CA
Avalon,1 Green Pleasure Pier,90044-5020,CA
Los Angeles,4716 E Cesar Chavez Ave,90011-3224,CA
La Habra,321 E La Habra Blvd,90043-2808,CA
Santa Clarita,27451 Tourney Rd,90043-4556,CA
Westlake Village,600 Hampshire Rd,90011-5014,CA
Los Angeles,9100 S Sepulveda Blvd,90033-1518,CA
Los Angeles,977 N Broadway,90044-6262,CA
Woodland Hills,21243 Ventura Blvd,90044-3135,CA
Los Angeles,P.O Box 88189,90044-3023,CA
Los Angeles,3756 Santa Rosalia Dr.,90037-2416,CA
Los Angeles,320 W Temple St,90044-2237,CA
Los Angeles,500 W. Temple St.,90012-2063,CA
Los Angeles,777 S. Figueroa St.,90280-4521,CA
Downey,11282 S. Garfield Ave.,90001-2621,CA
Los Angeles,1104 N. Eastern Ave.,90001,CA
Los Angeles,222 S. Hill St.,90001,CA
Los Angeles,222 N. Grand Ave.,90255-3906,CA
Los Angeles,222 N. Grand Ave.,90255-6352,CA
Los Angeles,222 N. Grand Ave.,90255-4190,CA
Los Angeles,222 N. Grand Ave.,90201-5421,CA
Norwalk,11929 Alondra Blvd.,90640-4431,CA
Los Angeles,444 S Flower St,90201-4815,CA
Lancaster,251 E. Avenue K-6,90640-5816,CA
Sylmar,13800 Balboa Blvd.,90022-3508,CA
Los Angeles,500 W Temple St,90660-2264,CA
Culver City,6120 Bristol Pkwy,90022-4619,CA
South El Monte,1190 Durfee Ave.,90201-1936,CA
Signal Hill,1401 E. Willow St.,90640-4132,CA
Van Nuys,14340 Sylvan St.,90022-4903,CA
Los Angeles,200 N. Spring St.,90640-3939,CA
Norwalk,12440 E. Imperial Hwy.,91732-2797,CA
West Covina,1521 W. Cameron Ave.,91733-4113,CA
Van Nuys,15350 Sherman Way,91733-2817,CA
Pasadena,200 S Los Robles Ave,91732-3694,CA
Compton,1108 N Oleander Ave,91733-4099,CA
El Monte,9350 Flair Dr,91732-3799,CA
Long Beach,501 W Ocean Blvd,91732-3593,CA
Los Angeles,300 N Los Angeles St,90650-5630,CA
Van Nuys,6230 Van Nuys Blvd,90650-6525,CA
Los Angeles,225 N Hill St,90650-6534,CA
Pacoima,11300 Glenoaks Blvd.,90638-2820,CA
Los Angeles,8740 Lincoln Blvd,90650-5110,CA
Alhambra,210 N Chapel Ave,90650-7228,CA
Baldwin Park,4100 Baldwin Park Blvd,90260-1740,CA
Claremont,660 N. Mountain Ave.,90039-2220,CA
Pico Rivera,9200 Mines Ave,90249-3143,CA
San Pedro,131 N. Grand Ave.,90012-2327,CA
Los Angeles,2152 W. Manchester Ave.,90018-1507,CA
Los Angeles,1465 E. 103rd St.,90006,CA
Rosemead,7424 Newmark Ave.,90007-3139,CA
Long Beach,2565 Pacific Ave.,90260-3246,CA
Los Angeles,1250 W. Jefferson Blvd.,90026-3623,CA
Los Angeles,3020 Catalina Ave.,90016-4508,CA
Long Beach,1840 Pacific Ave.,90018-3827,CA
Los Angeles,3716 S. Hope St.,90011-1402,CA
Los Angeles,7217 S. Mace Pl.,90006-4012,CA
Los Angeles,3817 S. San Pedro St.,90278-2613,CA
Long Beach,2205 San Gabriel Ave.,90249-144,CA
Los Angeles,5110 W. Goldleaf Circle,90016-5815,CA
Los Angeles,3911 W. Adams Blvd.,93550-4903,CA
Wilmington,909 W. D St.,93534-3213,CA
San Pedro,739 W. 3rd St.,93552,CA
Los Angeles,741 W. 27th St.,93535-4474,CA
Los Angeles,12829 S. Jarvis St.,93551,CA
Los Angeles,5870 W. Jefferson Blvd.,93550,CA
Los Angeles,932 W. 85th St.,93551,CA
Los Angeles,5701 S. Hoover St.,93550-5208,CA
Inglewood,10409 10th Ave.,93543-4019,CA
Pasadena,595 N. Lincoln Ave.,93535-2882,CA
East Los Angeles,4701 E. Cesar E. Chavez Ave.,93591-3800,CA
Los Angeles,710 E. 111th Pl.,93550-3603,CA
San Fernando,13330 Vaughn St.,93550-5208,CA
Duarte,2500 E. Huntington Dr.,90032-1725,CA
Long Beach,2650 Pacific Ave.,90242-3440,CA
Santa Monica,2802 Fourth St.,91702-3430,CA
Los Angeles,333 S Beaudry Ave,90605-4059,CA
Pasadena,363 E. Villa St.,90032-1913,CA
Los Angeles,3655 S Grand Ave,90242,CA
Long Beach,501 Atlantic Ave.,90670-2862,CA
Long Beach,507 Pacific Ave.,90032-1617,CA
Pasadena,539 N. Lake Ave.,90023-1548,CA
Glendale,610 Glendale Ave.,90240-2768,CA
Long Beach,622 E. Hill St.,90601-3536,CA
Glendale,735 E. Lexington Dr.,90042-2623,CA
Rosemead,7600 E. Graves Ave.,90280-8254,CA
Altadena,836 W. Woodbury Rd.,90670-2859,CA
,919 S. Garfield,91733-3322,CA
,522 N. Dangler,90670-3612,CA
,337 W. Pomona Blvd.,90601-1541,CA
,242-250 N. Burlington Ave.,90042,CA
,1120 S. Mcdonnell Ave.,90602-2872,CA
,3260 Marengo Street,90605-2443,CA
Alhambra,5102 Kinsie Street,90031-2311,CA
Los Angeles,4001 N. Mission Road,90660-4233,CA
Monterey Park,475 S. Downey Road,90605-3527,CA
Los Angeles,1301 Avenida Cesar Chavez B,90660-3417,CA
Los Angeles,711 Hoefner Street,90032-4220,CA
Los Angeles,204 N. Monterey Street,90031-3039,CA
Commerce,2212 S. Fremont Ave.,90606-2312,CA
Los Angeles,5443 Ash Street,90601-1502,CA
Los Angeles,840 N. Avenue 66,90033-2422,CA
Monterey Park,211 N. Humphreys,90670-4601,CA
Los Angeles,17050 Northam,90242-4720,CA
Alhambra,3565 E. First Street,91733-3322,CA
Alhambra,1316 S. Herbert Ave.,91766-5367,CA
Highland Park,4603 East 1St Street,91767-3409,CA
Los Angeles,9032 Mission Drive,91768-2156,CA
Los Angeles,3864 Whittier Blvd.,91767-2403,CA
La Puente,11737 E. 214Th Street,91767-4041,CA
Los Angeles,19200 Ely Ave.,91767-1913,CA
East Los Angeles,17500 S. Belshire Ave.,91768-2517,CA
Los Angeles,21314 Claretta Ave.,91769-4164,CA
Rosemead,16715 S. Jersey Ave.,97166-5164,CA
Los Angeles,11733 205Th Street,91768-3622,CA
Lakewood,13259 Francisquito Ave.,91766-4416,CA
Cerritos,12820 E. Bess Ave.,91766-2826,CA
Artesia,13900 Foster Avenue,91789-1341,CA
Lakewood,14600 Cavette Place,91766-1233,CA
Artesia,14900 E. Nubia Street,91766-5761,CA
Lakewood,13350 Tracy Street,91767-2443,CA
Baldwin Park,3609 N. Vineland Avenue,91767-2535,CA
Baldwin Park,4701 Walnut Street,91767-5856,CA
Baldwin Park,13800 Don Julian Road,91768-3537,CA
Baldwin Park,14135 Fairgrove Ave.,91767-4919,CA
Baldwin Park,943 Sunkist Avenue,91767-2751,CA
Baldwin Park,935 Mayland Avenue,91766-4449,CA
Baldwin Park,1151 Van Wig Ave.,91766-3770,CA
Baldwin Park,6144 Clark Avenue,91766-1058,CA
La Puente,14500 S. Woodruff Avenue,90405-2621,CA
La Puente,15332 S. Eucalyptus Avenue,90405-2622,CA
La Puente,10039 E. Palm Street,90405-2853,CA
La Puente,5223 E. Bigelow Avenue,90404-2044,CA
La Puente,9725 E. Jefferson Street,90405-3708,CA
Lakewood,5511 Whitewood Avenue,90405-3814,CA
Bellflower,30249 San Martinez Road,90405-2615,CA
Bellflower,17551 Miranda Street,90016-3837,CA
Bellflower,13060 Roscoe Blvd.,90061-1763,CA
Lakewood,7224 Woodley Avenue,90250-5808,CA
Lakewood,15035 Valerio,90304-1739,CA
Val Verde,5944 Woodman Avenue,90302-1613,CA
Encino,3615 Overland Avenue,90250-2804,CA
Sun Valley,6525 S. San Pedro Street,90250-5808,CA
Van Nuys,905 E. 52Nd Street,90059-7241,CA
,1020 Victoria Avenue,90303-1810,CA
Van Nuys,682 Broadway Avenue,90304-1911,CA
Van Nuys,7011 S. San Pedro Street,90002-3111,CA
Los Angeles,1584 E. M.L.King Jr. Blvd,90043-3252,CA
Los Angeles,1905 20Th Street,90250-1810,CA
Los Angeles,11815 Allin Street,90302-2915,CA
Venice,1720 Broadway Blvd.,90280-2318,CA
Venice,3735 Motor Ave.,90002-3612,CA
Los Angeles,346 E. 36Th Street,91340,CA
Los Angeles,153 E. M.L.King Jr. Blvd.,90744-4804,CA
Santa Monica,1433 Crestfield Drive,90710-2204,CA
Culver City,1212 Kellwil Way,91605-2814,CA
Santa Monica,733 Euclid Ave,91605-3976,CA
Los Angeles,3111 N. Potrero Avenue,91601-3619,CA
Los Angeles,3920 N. Gibson Road,90810-1534,CA
Los Angeles,11121 E. Bryant Road,90250-2722,CA
Duarte,10410 E. Bodger Street,91606-3715,CA
Duarte,4300 N. Esto,91352-5057,CA
Duarte,4020 N. Gibson Road,91606-2605,CA
El Monte,4544 Maxson Road,90744-4804,CA
El Monte,1226 N. Alvarado Street,90732-3426,CA
El Monte,220 E. Avenue 28,,CA
El Monte,1220 N. Berendo,,CA
El Monte,440 N. Walnut Ave.,91601-3619,CA
El Monte,4011 W. Clinton Street,91303,CA
El Monte,2630 Pepper Ave.,90033,CA
Los Angeles,3010 Eagle Street,90033,CA
Los Angeles,2100 Marengo St.,93534,CA
Los Angeles,1962 Echo Park Ave.,90022,CA
San Dimas,951 E. Philadelphia Street,91767,CA
Los Angeles,717 N. Figueroa Street,93534,CA
Los Angeles,5636 Fountain Ave.,90255,CA
Los Angeles,1016 S. Fresno Street,90022,CA
Los Angeles,360 S. Gless Street,93551,CA
Los Angeles,8835 S. Avalon Blvd.,91311,CA
Pomona,5000 Hollywood Blvd.,90405,CA
Los Angeles,5637 La Mirada,90021,CA
Los Angeles,"""2425 """"E"""" Street""",90061,CA
Los Angeles,707 E. Kensington Road,90059,CA
Los Angeles,11253 S. Compton Avenue,90221,CA
Los Angeles,1500 E. 4Th St.,90230,CA
Los Angeles,2737 Hyans Street,90046,CA
Los Angeles,2500 Griffin Ave.,90020,CA
La Verne,1925 S. Budlong Avenue,90026,CA
Echo Park,909 E. Juanita Ave.,90031,CA
Los Angeles,716 N. State Street,91405,CA
Los Angeles,1528 N. Witon Place,90401,CA
Los Angeles,6128 Yucca Street,90037,CA
Los Angeles,7501 E. Fern Ave.,91205,CA
Los Angeles,525 E. Dewey Ave.,90807,CA
La Verne,7830 E. Dorothy Ave.,91731,CA
Los Angeles,7544 E. Emerson Place,91724,CA
Los Angeles,3152 N. Willard Ave.,90405,CA
Rosemead,795 Pepper Street,91724,CA
San Gabriel,1817 S. Jackson Ave.,91723,CA
Rosemead,901 E. Graves Ave.,90028,CA
Rosemead,2150 N. Angelus Ave.,91744,CA
Rosemead,8470 E. Fern Street,91733,CA
Monterey Park,2444 N. Del Mar Ave.,91790,CA
Monterey Park,1616 Griffith,91733,CA
San Gabriel,1000 California Ave.,91776,CA
Monterey Park,801 N. Del Valle,91733,CA
Rosemead,15540 Fairgrove Ave.,91723,CA
Rosemead,16234 Folger Street,91790,CA
Rosemead,800 N. Tonopah,90041,CA
La Puente,1234 Valencia Ave.,91723,CA
La Puente,1925 Kwis Ave.,91740,CA
La Puente,14333 Lassalette,91776,CA
La Puente,330 California Ave.,91723,CA
Hacienda Heights,15151 Temple Ave.,91744,CA
La Puente,635 California Ave.,91724,CA
Hacienda Heights,1030 N. Indian Summer,91016,CA
Hacienda Heights,16605 Wing Lane,90042,CA
La Puente,16000 Workman Street,91706,CA
La Puente,11710 S. Cherry Avenue,90031,CA
La Puente,10409 10Th Avenue,91748,CA
La Puente,3740 Don Felipe Drive,90670,CA
Valinda,731 Beacon Ave.,90066,CA
Valinda,353 San Jose Ave.,90291,CA
La Puente,1966 S. Concordia Walk,91702,CA
Inglewood,2415 W. Avenue 30,91702,CA
Inglewood,1145 Cypress Ave.,91722,CA
Los Angeles,3315 Verdugo Road,91706,CA
Los Angeles,1336 W. Angelina Street #10,91745,CA
Burbank,4973 W. 21St Street,90502,CA
Los Angeles,2828 W. Magnilia Blvd.,90650,CA
Los Angeles,9505 S. Main Street,90039,CA
Los Angeles,1200 S. Manhattan Place,90033,CA
Los Angeles,961 S. Mariposa Ave.,90033,CA
Los Angeles,1317 Maryland,90066,CA
Los Angeles,4118 Chevy Chase,90405,CA
Burbank,4605 W. Pico Blvd.,93534,CA
Los Angeles,10125 California Ave.,90230,CA
Los Angeles,1003 S. Verdugo Road,90755,CA
Los Angeles,10712 S. Wilmington Ave.,90806,CA
Los Angeles,9900 S. Central Ave.,90047,CA
Los Angeles,9622 Beach Street,90249,CA
South Gate,11230 S. Central Ave.,91744,CA
Los Angeles,710 E. 111Th Place,90505,CA
Glendale,1812 E. 110 Street,90505,CA
Los Angeles,3031 Beverly Blvd.,90815,CA
Los Angeles,1505 Beverley Blvd.,91326,CA
Los Angeles,2233 Beverly Blvd.,90028,CA
Los Angeles,361 E. Pondera Ave.,90026,CA
Los Angeles,43926 N. 2Nd Street East,90022,CA
Los Angeles,44924 E. 5Th Street,91606,CA
Los Angeles,1235 West Kettering,91042,CA
Los Angeles,747 W. Ave. J-12,91352,CA
Los Angeles,44044 36Th Street,90710,CA
Lancaster,4009 Gage Ave.,91352,CA
Lancaster,4756 E. Slauson Ave.,91605,CA
Lancaster,4811 E. Elizabeth Street,90744,CA
Lancaster,4706 Filmore St.,90810,CA
Lancaster,4801 E. 58Th Street,90710,CA
Lancaster,911 E. 25Th Street,90732,CA
Bell,703 E. 88Th Place,90744,CA
Maywood,1403 E. 21St Street,90250,CA
Cudahy,1334 S. Burlington,91606,CA
Bell,10611 S. Hoover,91605,CA
Maywood,9502 S. Figueroa Street,93534,CA
Los Angeles,4361 S. Central Ave.,91355,CA
Los Angeles,1320 Concord Ave.,90255,CA
Los Angeles,305 E. 105Th Street,91606,CA
Los Angeles,6525 S. Normandie,90710,CA
Los Angeles,6570 S. Normandie Ave,91601,CA
Los Angeles,10441 Antwerp,90007,CA
Los Angeles,6330 S. Figueroa Street,90017,CA
Los Angeles,1506 W. 61St Street,91331,CA
Los Angeles,8615 S. Central Ave.,90065,CA
Los Angeles,9022 S. Vermont Ave.,90503,CA
Los Angeles,2630 E. 7Th Street,90201,CA
Los Angeles,2702 W. Florence Ave.,93550,CA
Los Angeles,501 W. 80Th Street,90723,CA
Los Angeles,1010 E. 48Th Street,91732,CA
Los Angeles,8720 S. Hoover,90755,CA
Los Angeles,7914 S. Hoover Street,90660,CA
Los Angeles,4200 S. Hooper,90016,CA
Los Angeles,4330 W. Slauson Ave.,,CA
Los Angeles,6625 4Th Ave.,90014,CA
Los Angeles,1594 E. 54Th Street,90713,CA
Los Angeles,2755 Lancaster Ave.,90807,CA
Los Angeles,655 W. 70Th Street,90815,CA
Los Angeles,10441 S. Vermont Ave.,90017,CA
Los Angeles,10601 S. Vermont,90660,CA
Los Angeles,1024 W. Verrnon,90012,CA
Los Angeles,1215 W. Manchester,90040,CA
Los Angeles,120 Leroy Street,91767,CA
Los Angeles,9501 California Ave.,90044,CA
Los Angeles,7600 Graham Avenue,91746,CA
Los Angeles,1244 E. 61St St,91744,CA
Los Angeles,7800 Graham Avenue,91331,CA
Los Angeles,6812 Santa Fe Ave.,90808,CA
Los Angeles,7818 S. Pacific Blvd.,90806,CA
South Gate,2650 Zoe Ave.,90660,CA
Los Angeles,5620 Quinn Street,90650,CA
Los Angeles,200 W. Madison Avenue,91711,CA
Los Angeles,7425 S. Garfield Avenue,91010,CA
Huntington Park,900 S. Greenwood Avenue,90278,CA
Walnut Park,630 S. Leonard Avenue,90746,CA
Los Angeles,4700 Pine St.,90017,CA
Bell Gardens,6300 Northside Drive,90805,CA
Montebello,6740 E. Suva Street,91731,CA
Bell Gardens,1400 W. Madison Avenue,91732,CA
Montebello,1277 S. Clela Street,91733,CA
Los Angeles,2000 W. Beverly Blvd.,91732,CA
Pico Rivera,12043 Exline,91731,CA
Los Angeles,2109 Burkett Road,91733,CA
Bell Gardens,11050 Fineview Street,90248,CA
Montebello,12380 Felipe Street,91340,CA
Los Angeles,11111 Thienes Avenue,91767,CA
Montebello,12044 Elliot Avenue,91801,CA
El Monte,2850 Mountainview Road,90063,CA
El Monte,13421 S. Fairford Ave.,91770,CA
El Monte,15415 S. Pioneer Blvd.,90042,CA
El Monte,15711 Pioneer Blvd.,90017,CA
El Monte,13930 Foster Road,90006,CA
El Monte,14616 Dinard Avenue,90006,CA
El Monte,11960 E. 162Nd Street,90019,CA
Norwalk,4130 W. 154Th Street,90063,CA
Norwalk,3370 Perlita Avenue,91803,CA
Norwalk,14420 S. Crenshaw Blvd.,90042,CA
La Mirada,817 Yale Street,90278,CA
Norwalk,2085 S. Hobart Blvd.,90249,CA
Norwalk,2300 W. James Wood Blvd.,90011,CA
Lawndale,1276 W. 29Th Street,90011,CA
Los Angeles,4520 W. 168Th Street,90249,CA
Gardena,1664 W. Adams Bl,90007,CA
Los Angeles,650 N. Micheltorena Avenue,90018,CA
Los Angeles,3401 Someret Dr.,90006,CA
Los Angeles,3650 S. Western Avenue,90016,CA
Los Angeles,120 E. 25Th Street,90807,CA
Lawndale,2531 W. Pico Blvd.,90706,CA
Los Angeles,14517 S. Crenshaw Blvd.,90026,CA
Los Angeles,1809 West Blvd.,90004,CA
Los Angeles,38060 20Th Street E.,91746,CA
Los Angeles,44832 Cedar Avenue,91401,CA
Los Angeles,37500 50Th St East,90222,CA
Gardena,1702 East Avenue J,90037,CA
Gardena,39055 25Th St. W.,90301,CA
Los Angeles,38656 33Rd Street East,91103,CA
Palmdale,38737 Ocotillo School Drive,90005,CA
Lancaster,326 E. Avenue R.,90057,CA
Palmdale,9657 East Avenue Q-10,90703,CA
Lancaster,44900 N. 27Th Street E.,90026,CA
Palmdale,1100 E. Ave. R-4,93535,CA
Palmdale,18050 East Avenue O,91325,CA
Palmdale,38440 2Nd Street East,91733,CA
Palmdale,326 East Avenue R,90006,CA
Palmdale,11600 E. Aeolian,91792,CA
Lancaster,5480 Huntington Drive,91744,CA
Palmdale,328 N. Orange Place,91724,CA
Palmdale,11924 S. Leland Avenue,90746,CA
Palmdale,4540 Huntington Drive South,91306,CA
Los Angeles,9329 Alburtis Street,91601,CA
Downey,5036 N. Huntington Drive,90007,CA
Azusa,817 Euclid Avenue,91791,CA
Whittier,2923 2Nd Street,90503,CA
Los Angeles,9001 Paramount Blvd.,91791,CA
Downey,6355 Greenleaf,91007,CA
Santa Fe Springs,6310 Aldama,90305,CA
Los Angeles,13431 Paramount,90302,CA
Los Angeles,9400 Jersey Ave.,90301,CA
Downey,11500 Joslin Ave.,90303,CA
Whittier,12322 Pellissier,90007,CA
Los Angeles,121 N. Avenue 53,90301,CA
South Gate,11700 Pilgram Way,90005,CA
Santa Fe Springs,12100 Crewe Street,91768,CA
So. El Monte,2670 Griffin,90011,CA
Santa Fe Springs,7540 S. Passons Blvd.,90011,CA
Whittier,13118 Rainier Street,90011,CA
Los Angeles,6440 Paramount Blvd.,90011,CA
Whittier,4339 State University Drive,90230,CA
Norwalk,2141 Workman Street,90033,CA
Los Angeles,7804 S. Thornlake Ave.,91107,CA
Pico Rivera,6411 S. Norwalk Blvd.,90221,CA
Whittier,1803 Pennsylvania Ave.,90813,CA
Pico Rivera,11015 Bloomfield Ave.,90015,CA
Los Angeles,12830 Clark Ave.,91001,CA
Los Angeles,1824 Central Ave.,91205,CA
Whittier,1600 S. Towne Avenue,90016,CA
Whittier,1011 Russell Pl.,90026,CA
Los Angeles,1605 W. Arroyo Avenue,90002,CA
Santa Fe Springs,2181 N. San Antonio Avenue,90071,CA
Downey,635 Lincoln Ave.,90057,CA
South El Monte,425 E. Harrision Avenue,90230,CA
Pomona,610 Medina Street,90019-3619,CA
Pomona,1170 Washington Street,93550-6185,CA
Pomona,550 W. Lexington Avenue,90606-3306,CA
Pomona,605 N. Park,90260,CA
Pomona,1351 S. Main Street,91384,CA
Pomona,851 S. Hamilton Blvd.,91204,CA
Pomona,1100 N. Grand,91214,CA
Pomona,1580 W. 2Nd St,91741,CA
Pomona,600 E. Philadelphia Street,90250,CA
Pomona,475 Bangor Street,91016,CA
Pomona,845 E. Arrow Highway,90650,
Pomona,1460 E. Holt Avenue,90404,
Walnut,701 N. Huntington Blvd.,91748,
Pomona,855 E. Kingsley,,
Pomona,2015 Cadillac Drive,,
Pomona,1381 S. White Avenue,,
Pomona,975 E. Ninth Street,,
Pomona,1780 W. Ninth Street,,
Pomona,2425 16Th Street (Rm 80),,
Pomona,2430 Sixteenth Street,,
Pomona,2368 Pearl Street,,
Pomona,2401 Santa Monica Blvd.,,
Pomona,2526 6Th Street,,
Pomona,734 Pine Street,,
Santa Monica,2401 14Th Street,,
Santa Monica,5171 W. Jefferson Blvd.,,
Santa Monica,11819 S. Main Street,,
Santa Monica,4475 W. 137Th Street,,
Santa Monica,4949 W. 104Th Street,,
Santa Monica,1215 Marlborough Ave.,,
Santa Monica,4754 W. 120Th Street,,
Los Angeles,13560 S. Hawthorne Blvd.,,
Los Angeles,11425 S. Gorman Ave.,,
Hawthorne,3937 West 104Th Street,,
Inglewood,10521 Hawthorne Blvd.,,
Inglewood,9910 Grape Street,,
Hawthorne,2720 W. Slauson Ave.,,
Inglewood,2506 W. Imperial Highway,,
Los Angeles,400 W. Beach Ave.,,
Inglewood,3300 Liberty Blvd.,,
Lennox,1716 E. 105Th Street,,
Los Angeles,5252 W. Adams Blvd.,,
Los Angeles,13330 Vaughn Street,,
Hawthorne,1269 N. Avalon,,
Inglewood,1121 West Lomita Blvd.,,
South Gate,7625 Lankershim Blvd.,,
Los Angeles,11510 Valerio Street,,
San Fernando,21503 Prospect Ave.,,
Wilmington,4951 W. 119Th Place,,
Harbor City,6373 Vicland Place,,
North Hollywood,11329 Valerio Street,,
North Hollywood,11243 Kittridge Street,,
North Hollywood,10819 Plainview Avenue,,
Long Beach,334 Figueroa Street,,
Hawthorne,10725 Penrose Street,,
North Hollywood,11111 Strathern Street,,
Sun Valley,24027 Pennsylvania Ave.,,
North Hollywood,308 S. Weymouth Ave.,,
Wilmington,1087 W 257Th Street,,
San Pedro,11630 Hesby Street,,
,1082 W. 257Th Street,,
,11243 Kittridge Street,,
North Hollywood,445 North Avalon,,
Canoga Park,21600 Hart St.,,
Los Angeles,157 S. Gless St.,,
Los Angeles,420 N. Soto St.,,
Lancaster,45111 N. Fern Ave.,,
Los Angeles,501 S. Atlantic Blvd.,,
Diamond Bar,22600 Sunset Crossing Rd.,,
Lancaster,808 W. Newgrove St.,,
Huntington Park,2650 Zoe Ave,,
City of Commerce,972 S. Goodrich Blvd.,,
Palmdale,250 Grand Cypress Ave,,
Chatsworth,20001 Prairie St.,,
Santa Monica,2701 Ocean Park Blvd.,,
Los Angeles,836 Stanford Ave.,,
Los Angeles,11427 Avalon Blvd,,
Los Angeles,1770 E. 118th St.,,
Compton,1007 N Long Beach Blvd,,
Culver City,5721 W Slauson Ave,,
West Hollywood,7377 Santa Monica Blvd.,,
Los Angeles,3550 W. Sixth St.,,
Los Angeles,1336 W. Angelina St.,,
Los Angeles,3845 Selig Pl.,,
Van Nuys,6901 Lennox Ave.,,
Santa Monica,1332 6th St.,,
Los Angeles,4429 S. Broadway,,
Glendale,411 E. Colorado St.,,
Long Beach,345 E. Carson St.,,
El Monte,3360 Flair Dr.,,
Covina,240 S. Grand Ave.,,
Santa Monica,401 Ashland Ave.,,
Covina,4730 N. Grand Ave.,,
Covina,344 E. Rowland Ave.,,
Los Angeles,1375 N. St. Andrews Pl.,,
La Puente,17721 E. Gemini,,
South El Monte,1330 Potrero Ave.,,
West Covina,1001 W. Garvey Ave. N,,
South El Monte,11033 Central Ave,,
San Gabriel,1303 S. Manley Dr.,,
South El Monte,1431 N. Central Ave.,,
Covina,160 N Barranca Ave,,
West Covina,2021 W. Alwood,,
Los Angeles,2109 Chickasaw Ave.,,
Covina,231 E. Stephanie Dr.,,
Glendora,350 W. Mauna Loa Ave.,,
San Gabriel,5410 N Delta St,,
Covina,4050 N. Orange Ave.,,
La Puente,423 Shipman Ave.,,
Covina,4949 Bonnie Cove Ave.,,
Monrovia,527 S. Mountain Ave.,,
Los Angeles,6150 Piedmont Ave.,,
Baldwin Park,3699 N. Holly Ave.,,
Los Angeles,2434 Gates St.,,
City of Industry,18455 E. Railroad St.,,
Santa Fe Springs,10100 Pioneer Blvd.,,
Los Angeles,3877 Grandview Blvd.,,
Venice,804 Broadway Ave.,,
Azusa,505 E. Renwick Rd.,,
Azusa,409 W. Paramount Ave.,,
Covina,5034 N. Clydebank,,
Baldwin Park,3554 Maine Ave.,,
Hacienda Heights,1603 S. Stimson Ave.,,
Torrance,1124 W Carson St,,
Norwalk,15415 Pioneer Blvd,,
Los Angeles,1953 Lake Shore Ave.,,
Los Angeles,1505 E. 1st St.,,
Los Angeles,415 S. St. Louis St.,,
Los Angeles,4160 Grand View Blvd.,,
Santa Monica,2802 Fourth St.,,
Lancaster,43001 10th St.,,
Culver City,4500 S. Sepulveda Blvd.,,
Signal Hill,2399 California Ave.,,
Long Beach,2222 Olive Ave.,,
Los Angeles,2057 W. Century Blvd.,,
Gardena,13203 St. Andrews Pl.,,
La Puente,1000 N California Ave,,
Torrance,2900 W. Sepulveda Blvd.,,
Torrance,3420 W. 229th Pl.,,
Long Beach,3801 E. Willow St.,,
Northridge,11336 Corbin Ave.,,
Hollywood,1553 N. Schrader Blvd.,,
Los Angeles,707 E. Kensington Rd.,,
Los Angeles,618 N. Dangler,,
North Hollywood,11243 Kittridge St.,,
Tujunga,10819 Plainview Ave.,,
Sun Valley,11111 Strathern St.,,
Harbor City,1121 W. Lomita Blvd.,,
Sun Valley,11329 Valerio St.,,
North Hollywood,11512 Valerio St.,,
Wilmington,1269 N Avalon Blvd,,
Long Beach,21503 Prospect Ave.,,
Lomita,24027 Pennsylvania Ave.,,
San Pedro,308 S. Weymouth Ave.,,
Wilmington,334 Figueroa St.,,
Hawthorne,4951 w. 119th Pl.,,
North Hollywood,6373 Vicland Pl,,
North Hollywood,7625 Lankershim Blvd.,,
Lancaster,1028 W Ave L12,,
Santa Clarita,28470 N Ave Stanford,,
Huntington Park,6348 Seville Ave,,
North Hollywood,11243 Kittridge St.,,
Harbor City,1135 W. 257th St.,,
North Hollywood,11630 Hesby St.,,
Los Angeles,17 Chester Pl.,,
Los Angeles,1200 W 7Th St,,
Pacoima,11243 Glenoaks Blvd.,,
Los Angeles,929 Cypress Ave.,,
Torrance,3031 Torrance Blvd.,,
Bell,6250 Pine Ave.,,
Palmdale,975 E Ave P8,,
Paramount,7340 Jackson St,,
El Monte,2109 Burkett Rd.,,
Signal Hill,1260 E 33Rd St,,
Pico Rivera,8432 Birchbark Ave,,
Los Angeles,5443 W. Washington Blvd.,,
Pacoima,13630 Van Nuys Blvd.,,
Los Angeles,634 S Spring St,,
Lakewood,5835 E. Carson St.,,
Long Beach,3605 Long Beach Blvd.,,
Long Beach,1720 Bellflower Blvd.,,
Los Angeles,888 S Figueroa St,,
Pico Rivera,8337 Telegraph Rd,,
Los Angeles,222 S Hill St,,
Commerce,2353 S. Commerce Way,,
Pomona,1460 E Holt Ave,,
Los Angeles,9900 S. Vermont Ave.,,
La Puente,943 N. Sunkist Ave.,,
La Puente,455 N. Glendora Ave.,,
Pacoima,12700 Van Nuys Blvd.,,
Long Beach,4630 Clark Ave.,,
Long Beach,1305 E. Pacific Coast Highway,,
Pico Rivera,9515 Haney St,,
Norwalk,14616 Dinard Ave.,,
Claremont,170 W. San Jose Ave.,,
Duarte,1433 Crestfield Dr.,,
Redondo Beach,3401 Inglewood Ave.,,
Carson,20715 S Avalon Blvd,,
Los Angeles,1055 W. 7th St.,,
Long Beach,4949 Atlantic Ave.,,
El Monte,4300 N. Esto,,
El Monte,4316 Peck Rd.,,
El Monte,10410 E. Bodger St.,,
El Monte,4544 Maxson Rd.,,
El Monte,11121 E. Bryant Rd.,,
South El Monte,2131 Loma Ave.,,
Gardena,1000 W. Artesia Blvd.,,
San Fernando,1200 N. Maclay St.,,
Pomona,1460 E Holt Ave,,
Alhambra,919 S. Garfield Ave.,,
Los Angeles,3260 Marengo St.,,
Rosemead,9032 Mission Dr.,,
Los Angeles,6310 Aldama St.,,
Los Angeles,1055 Wilshire Blvd.,,
Los Angeles,1839 S. Hoover Ave.,,
Los Angeles,1322 S. New Hampshire,,
Los Angeles,1809 West Blvd.,,
Los Angeles,3565 E. First St.,,
Alhambra,2216 S. Fremont Ave.,,
Los Angeles,5443 Ash St.,,
Redondo,2606 Nelson Ave.,,
Gardena,14517 S. Crenshaw Blvd.,,
Los Angeles,255 E. 28th St.,,
Los Angeles,120 E 25Th St,,
Gardena,14420 S. Crenshaw Blvd.,,
Los Angeles,1910 Magnolia Ave.,,
Los Angeles,2085 S. Hobart Blvd.,,
Los Angeles,2300 James M. Wood Blvd.,,
Los Angeles,3401 Somerset Dr.,,
Long Beach,4310 Long Beach Blvd,,
Bellflower,9301 Flower St.,,
Los Angeles,2121 W. Temple St.,,
Los Angeles,3910 Oakwood Ave.,,
La Puente,13728 Amar Rd,,
Sherman Oaks,13130 Burbank Blvd,,
Compton,2115 N Wilmington Ave,,
Los Angeles,5701 S Hoover St,,
Inglewood,1 W Manchester Blvd,,
Pasadena,2034 Fair Oaks Ave,,
Los Angeles,701 S New Hampshire Ave,,
Los Angeles,130 S Lafayette Park Pl,,
Cerritos,11011 Artesia Blvd,,
Los Angeles,155 N Occidental Blvd,,
Lancaster,831 E Ave K,,
Northridge,9650 Zelzah Ave,,
El Monte,3111 Potrero Ave,,
Los Angeles,1839 S Hoover St,,
West Covina,3005 Hollingworth St,,
La Puente,520 Vidalia Ave,,
Covina,885 S. Valley Oaks Dr.,,
Carson,20715 S Avalon Blvd,,
North Hollywood,11243 Kittridge St,,
North Hollywood,11630 Hesby St,,
Los Angeles,3215 S Hoover St,,
West Covina,1500 S Hyacinth Ave,,
Torrance,21231 Hawthorne Blvd,,
West Covina,311 S Citrus St,,
Arcadia,376 W Huntington Dr,,
Inglewood,3400 W Arbor Vitae St,,
Inglewood,400 W Beach Ave,,
Inglewood,9717 S Inglewood Ave,,
Inglewood,11125 S Doty Ave,,
Los Angeles,1910 Magnolia Ave,,
Inglewood,330 E Kelso St,,
Los Angeles,711 S New Hampshire Ave,,
Pomona,1101 W Mckinley Ave,,
Los Angeles,1584 E Martin Luther King Jr Blvd,,
Los Angeles,1594 E 54Th St,,
Los Angeles,4261 S Central Ave,,
Los Angeles,1010 E 48Th St,,
Culver City,12120 Wagner St,,
Los Angeles,255 Gabriel Garcia Marquez St,,
Pasadena,2465 E Walnut St,,
East Rancho Dominguez,15727 S Atlantic Ave,,
Long Beach,1480 N Long Beach Blvd,,
Los Angeles,320 15Th St,,
Altadena,349 W Altadena Dr,,
Glendale,1003 S Verdugo Rd,,
Los Angeles,5470 W. Washington Blvd.,,
Los Angeles,234 S. Loma Dr.,,
Los Angeles,1773 E. Century Blvd.,,
Los Angeles,401 S. Hope St.,,
Los Angeles,2212 Beverly Blvd,,
Culver City,4901 Marionwood Dr,,
Los Angeles,151 N. Occidental Blvd.,,
Palmdale,12458 Rives Ave,,
Whittier,12830 Clark Ave.,,
Lawndale,4130 W. 154th St.,,
Castaic,28900 Hillcrest Parkway,,
Glendale,440 West Lomita Avenue,,
La Crescenta,4444 Cloud Avenue,,
Glendora,301 South Loraine Avenue,,
Hawthorne,3530 West 147th Street,,
Monrovia,1000 South Canyon Boulevard,,
Norwalk,14616 Dinard Avenue,,
Santa Monica,1651 16th Street,,
Rowland Heights,18550 East Farjardo Street,,